{
    "links": {
        "self": "http://www.neowsapp.com/rest/v1/neo/3092295?api_key=iIulBulltgU6a56xZRHN4H3l9WmuAYTsLGpBGhQ2"
    },
    "id": "3092295",
    "neo_reference_id": "3092295",
    "name": "(2001 FC90)",
    "designation": "2001 FC90",
    "nasa_jpl_url": "http://ssd.jpl.nasa.gov/sbdb.cgi?sstr=3092295",
    "absolute_magnitude_h": 21.4,
    "estimated_diameter": {
        "kilometers": {
            "estimated_diameter_min": 0.1394938229,
            "estimated_diameter_max": 0.3119176705
        },
        "meters": {
            "estimated_diameter_min": 139.4938229344,
            "estimated_diameter_max": 311.9176705226
        },
        "miles": {
            "estimated_diameter_min": 0.0866774163,
            "estimated_diameter_max": 0.1938165949
        },
        "feet": {
            "estimated_diameter_min": 457.6569140361,
            "estimated_diameter_max": 1023.3519701574
        }
    },
    "is_potentially_hazardous_asteroid": false,
    "close_approach_data": [
        {
            "close_approach_date": "2001-04-05",
            "close_approach_date_full": "2001-Apr-05 08:41",
            "epoch_date_close_approach": 986460060000,
            "relative_velocity": {
                "kilometers_per_second": "7.4626623249",
                "kilometers_per_hour": "26865.5843697197",
                "miles_per_hour": "16693.2293546184"
            },
            "miss_distance": {
                "astronomical": "0.1506516014",
                "lunar": "58.6034729446",
                "kilometers": "22537158.681529018",
                "miles": "14003941.0333277284"
            },
            "orbiting_body": "Earth"
        }
    ],
    "orbital_data": {
        "orbit_id": "15",
        "orbit_determination_date": "2017-04-06 09:16:27",
        "first_observation_date": "2001-03-26",
        "last_observation_date": "2001-04-13",
        "data_arc_in_days": 18,
        "observations_used": 49,
        "orbit_uncertainty": "7",
        "minimum_orbit_intersection": ".138278",
        "jupiter_tisserand_invariant": "3.926",
        "epoch_osculation": "2459000.5",
        "eccentricity": ".3772809830894782",
        "semi_major_axis": "1.821256882080348",
        "inclination": "12.63471513481471",
        "ascending_node_longitude": "7.547805153778909",
        "orbital_period": "897.7496318022079",
        "perihelion_distance": "1.134131295150596",
        "perihelion_argument": "192.7717755960242",
        "aphelion_distance": "2.508382469010099",
        "perihelion_time": "2459194.475180859799",
        "mean_anomaly": "282.2154344197907",
        "mean_motion": ".4010026707304906",
        "equinox": "J2000",
        "orbit_class": {
            "orbit_class_type": "AMO",
            "orbit_class_description": "Near-Earth asteroid orbits similar to that of 1221 Amor",
            "orbit_class_range": "1.017 AU < q (perihelion) < 1.3 AU"
        }
    },
    "is_sentry_object": false
}